CCSDS_OEM_VERS = 2.0
CREATION_DATE  = 2025-09-29T16:51:34.632
ORIGINATOR     = NASA/JSC/FOD/TOPO

META_START
OBJECT_NAME          = ISS
OBJECT_ID            = 1998-067-A
CENTER_NAME          = Earth
REF_FRAME            = EME2000
TIME_SYSTEM          = UTC
START_TIME           = 2025-09-29T12:00:00.000
USEABLE_START_TIME   = 2025-09-29T12:00:00.000
USEABLE_STOP_TIME    = 2025-10-14T12:00:00.000
STOP_TIME            = 2025-10-14T12:00:00.000
META_STOP

COMMENT Source: This file was produced by the TOPO office within FOD at JSC.
COMMENT Units are in kg and m^2
COMMENT MASS=480685.80
COMMENT DRAG_AREA=1526.60
COMMENT DRAG_COEFF=2.10
COMMENT SOLAR_RAD_AREA=0.00
COMMENT SOLAR_RAD_COEFF=0.00
COMMENT Orbits start at the ascending node epoch
COMMENT ISS first asc. node: EPOCH = 2025-09-29T12:00:42.581 $ ORBIT = 1134 $ LAN(DEG) = -38.63624
COMMENT ISS last asc. node : EPOCH = 2025-10-14T11:03:33.098 $ ORBIT = 1366 $ LAN(DEG) = -113.19690
COMMENT Begin sequence of events
COMMENT TRAJECTORY EVENT SUMMARY:
COMMENT 
COMMENT |       EVENT        |       TIG        | ORB |   DV    |   HA    |   HP    |
COMMENT |                    |       GMT        |     |   M/S   |   KM    |   KM    |
COMMENT |                    |                  |     |  (F/S)  |  (NM)   |  (NM)   |
COMMENT =============================================================================
COMMENT =============================================================================
COMMENT End sequence of events
2025-10-05T02:40:00.000 -3580.570885834890 5777.578651242770 -12.699613476769 -4.03181216639704 -2.49292565903414 6.01793532907347
2025-10-05T02:44:00.000 -4406.139448353080 4976.308042557930 1414.454929901210 -2.80580973937772 -4.14365233221562 5.80213857830008
2025-10-05T02:48:00.000 -4910.960396000560 3812.789031690440 2738.354779544940 -1.37532858340927 -5.49308468717903 5.16274617391763
2025-10-05T02:52:00.000 -5058.291905424730 2371.712607079550 3862.360358125100 0.15497450025783 -6.44245125088719 4.14662240644855
2025-10-05T02:56:00.000 -4837.533608112450 758.033412385514 4704.505712830590 1.67332911551702 -6.92272010072858 2.82837269243416
2025-10-05T03:00:00.000 -4264.899373551770 -910.803640240552 5203.475974398080 3.06941994933494 -6.89934707100020 1.30432940468836
2025-10-05T03:04:00.000 -3382.131367156960 -2513.417990033200 5322.978939642450 4.24206880218631 -6.37424974587627 -0.31455394019247
2025-10-05T03:08:00.000 -2253.435351267630 -3933.262977629940 5054.316641252340 5.10635309850070 -5.38551837868411 -1.91066320463965
2025-10-05T03:12:00.000 -960.844536548035 -5067.013877470690 4416.987237037810 5.59949320090115 -4.00458763940969 -3.36801023264991
2025-10-05T03:16:00.000 401.654655579084 -5832.029336701870 3457.323627769220 5.68529396710173 -2.33143786041249 -4.58029413809518
2025-10-05T03:20:00.000 1734.896298217980 -6172.426191085990 2245.226101667190 5.35711505793022 -0.48776000426469 -5.45864185362208
2025-10-05T03:24:00.000 2941.775896722990 -6063.284952711350 869.139658763464 4.63873637201787 1.39168372722529 -5.93842817159245
2025-10-05T03:28:00.000 3934.424722567870 -5512.593963836920 -570.433437079128 3.58288796011858 3.16918277647930 -5.98447732245457
2025-10-05T03:32:00.000 4640.733146445100 -4560.687185890490 -1968.392834053640 2.26731239072013 4.71465200518662 -5.59390873941637
2025-10-05T03:36:00.000 5009.659058397690 -3277.189636783970 -3222.862286049450 0.78867173378359 5.91564363124818 -4.79625092470121
2025-10-05T03:40:00.000 5014.881552860470 -1755.736391904250 -4242.702814853390 -0.74504271363636 6.68573300212135 -3.65079406352073
2025-10-05T03:44:00.000 4656.532706981440 -106.965549456705 -4954.094539987200 -2.22274466666474 6.97040294821466 -2.24158741683073
2025-10-05T03:48:00.000 3960.978634680290 1549.571759364420 -5305.723563235290 -3.53817336600781 6.75021801281863 -0.67098093832036
2025-10-05T03:52:00.000 2978.775835927120 3093.976167596080 -5272.305229150650 -4.59713318182865 6.04164708948077 0.94777252137118
2025-10-05T03:56:00.000 1781.011520761320 4414.473767243420 -4856.264472630430 -5.32366427301433 4.89550863605865 2.49827692485323
2025-10-05T04:00:00.000 454.294228429630 5415.293106109340 -4087.575250522600 -5.66514216670852 3.39364307723072 3.86866153590263
2025-10-05T04:04:00.000 -905.334988524605 6023.522540564700 -3021.733126738020 -5.59608574403462 1.64365978301282 4.95936646523021
2025-10-05T04:08:00.000 -2199.217178837620 6194.481567434560 -1735.934603074000 -5.12041188645951 -0.22809299758528 5.69025431371239
2025-10-05T04:12:00.000 -3333.224414176910 5915.194017034900 -323.623053627764 -4.27181536968694 -2.08539998226275 6.00700858221209
2025-10-05T04:16:00.000 -4224.702754280890 5205.548086341360 1112.289541800050 -3.11167874154824 -3.79233663834771 5.88560691934277
2025-10-05T04:20:00.000 -4808.635808304900 4116.974537443600 2467.004877660860 -1.72468242996370 -5.22368132295330 5.33449177399505
2025-10-05T04:24:00.000 -5042.499695747430 2728.691585953480 3641.623478654830 -0.21235614159833 -6.27459630134632 4.39405829612929
2025-10-05T04:28:00.000 -4909.380065849040 1141.815743031800 4550.467498938670 1.31478140763337 -6.86854382811200 3.13334835806019
2025-10-05T04:32:00.000 -4419.127514677280 -528.129363069614 5127.350868354520 2.74562847619828 -6.96270173108388 1.64466788869103
2025-10-05T04:36:00.000 -3607.516141190150 -2159.681216469510 5330.317283022290 3.97649858783963 -6.55057910007815 0.03638346579752
2025-10-05T04:40:00.000 -2533.592047784550 -3634.201715390810 5144.592484377930 4.91826916193386 -5.66204379200699 -1.57467103343713
2025-10-05T04:44:00.000 -1275.413410288260 -4844.405207995130 4583.644608498730 5.50257165614469 -4.36130512462170 -3.07137866255933
2025-10-05T04:48:00.000 75.551632221128 -5702.119528466940 3688.244523053630 5.68670657676408 -2.74249685330984 -4.34469222879775
2025-10-05T04:52:00.000 1421.005700061880 -6144.722791239950 2523.582076698660 5.45685873183709 -0.92318968404208 -5.30139946639709
2025-10-05T04:56:00.000 2662.965406629330 -6139.823523010820 1174.609507515590 4.82952447642177 0.96377265035884 -5.87111439276354
2025-10-05T05:00:00.000 3710.985437235700 -5687.773002882320 -260.159918339661 3.85066982260264 2.78014264806725 -6.01198823081496
2025-10-05T05:04:00.000 4488.876764768550 -4821.687623702080 -1675.952865239980 2.59237646075166 4.39288046880660 -5.71406443339267
2025-10-05T05:08:00.000 4940.339361874800 -3604.948323100790 -2969.541774494860 1.14718949475849 5.68446382622980 -5.00005177366318
2025-10-05T05:12:00.000 5033.018102381920 -2126.376704832010 -4046.877063419600 -0.37919795340962 6.56168914487826 -3.92315608740665
2025-10-05T05:16:00.000 4760.698507459040 -493.570622827858 -4829.911271320960 -1.87601036663267 6.96216635569840 -2.56260472268108
2025-10-05T05:20:00.000 4143.550624947470 1175.009463395870 -5262.120819250900 -3.23545547410866 6.85817872338473 -1.01739180396145
2025-10-05T05:24:00.000 3226.506586033850 2758.559519243070 -5312.397169547560 -4.36012931530232 6.25792050602985 0.60093081304848
2025-10-05T05:28:00.000 2075.978192008670 4142.480057812750 -4977.149742703900 -5.16942847261156 5.20459528696715 2.17591109645112
2025-10-05T05:32:00.000 775.155383185022 5226.464608434380 -4280.530890384290 -5.60492411765254 3.77342464244696 3.59410250152238
2025-10-05T05:36:00.000 -581.828900833688 5931.635461851070 -3272.803018110830 -5.63444258538745 2.06683951401518 4.75262194307190
2025-10-05T05:40:00.000 -1896.565560585500 6206.319640068580 -2026.901493835190 -5.25481703596384 0.20781857012722 5.56659766486483
2025-10-05T05:44:00.000 -3073.460216840090 6029.991267351470 -633.308300955401 -4.49263308165373 -1.66858779536370 5.97566140689266
2025-10-05T05:48:00.000 -4026.757500026020 5415.010506720800 806.470843930587 -3.40286880086334 -3.42513130777513 5.94899626900731
2025-10-05T05:52:00.000 -4686.935329936130 4405.870039597960 2187.377641040030 -2.06495805125107 -4.93301560847983 5.48801882217579
2025-10-05T05:56:00.000 -5005.889141662620 3075.971903717810 3408.590719238040 -0.57681096593694 -6.08168779761368 4.62642481202341
2025-10-05T06:00:00.000 -4960.484861647010 1522.187602605890 4381.011672069350 0.95274470609968 -6.78735832479690 3.42752568184940
2025-10-05T06:04:00.000 -4554.188789314890 -142.342371040774 5033.799356536360 2.41227950247476 -6.99901730562064 1.97916438852102
2025-10-05T06:08:00.000 -3816.693697506710 -1796.523397908630 5319.473764588990 3.69596087082616 -6.70169440789576 0.38693021387731
2025-10-05T06:12:00.000 -2801.680553564100 -3320.080347583930 5217.264504596170 4.71088298319228 -5.91709907956712 -1.23350903320037
2025-10-05T06:16:00.000 -1582.923795123830 -4602.194615843150 4734.561791271480 5.38345219083293 -4.70185398191268 -2.76449445487563
2025-10-05T06:20:00.000 -249.017228268428 -5549.479880237430 3906.426258364790 5.66455377634012 -3.14382765982870 -4.09447494427343
2025-10-05T06:24:00.000 1102.999269461730 -6092.811494829640 2793.133117310000 5.53338081979208 -1.35612747653746 -5.12618310366570
2025-10-05T06:28:00.000 2374.683821649590 -6192.454417311310 1475.858021684920 4.99918883033192 0.53088893209593 -5.78381617233055
2025-10-05T06:32:00.000 3473.418867267440 -5841.101576133540 50.782681439360 4.10101964440875 2.37903982480214 -6.01899091053931
2025-10-05T06:36:00.000 4319.283314568900 -5064.494043027590 -1378.015193799210 2.90496470632537 4.05290153505765 -5.81473685839030
2025-10-05T06:40:00.000 4850.973221513670 -3919.487507098180 -2706.312241182660 1.49905284747130 5.43029120298653 -5.18679825092394
2025-10-05T06:44:00.000 5030.261254280450 -2489.723818530930 -3837.467247703350 -0.01371832102625 6.41155899566196 -4.18213184027932
2025-10-05T06:48:00.000 4844.642245176930 -879.324202251118 -4689.468692406430 -1.52335720741710 6.92666039620196 -2.87484174436858
